[{"OBJECT_NAME":"KUIPER-00028","OBJECT_ID":"2025-088T","EPOCH":"2026-03-03T08:22:35.784192","MEAN_MOTION":14.79990377,"ECCENTRICITY":6.17e-5,"INCLINATION":51.9011,"RA_OF_ASC_NODE":121.0925,"ARG_OF_PERICENTER":81.5273,"MEAN_ANOMALY":278.5759,"EPHEMERIS_TYPE":0,"CLASSIFICATION_TYPE":"U","NORAD_CAT_ID":63741,"ELEMENT_SET_NO":999,"REV_AT_EPOCH":4712,"BSTAR":0.00038434,"MEAN_MOTION_DOT":2.714e-5,"MEAN_MOTION_DDOT":0},{"OBJECT_NAME":"KUIPER-00029","OBJECT_ID":"2025-088U","EPOCH":"2026-03-03T08:46:21.478368","MEAN_MOTION":14.83590941,"ECCENTRICITY":7.12e-5,"INCLINATION":51.9014,"RA_OF_ASC_NODE":118.7061,"ARG_OF_PERICENTER":101.3036,"MEAN_ANOMALY":258.8008,"EPHEMERIS_TYPE":0,"CLASSIFICATION_TYPE":"U","NORAD_CAT_ID":63742,"ELEMENT_SET_NO":999,"REV_AT_EPOCH":4668,"BSTAR":0.00079265,"MEAN_MOTION_DOT":6.375e-5,"MEAN_MOTION_DDOT":0},{"OBJECT_NAME":"KUIPER-00030","OBJECT_ID":"2025-088V","EPOCH":"2026-03-03T11:58:34.432032","MEAN_MOTION":14.79964419,"ECCENTRICITY":0.0010588,"INCLINATION":51.9007,"RA_OF_ASC_NODE":137.9212,"ARG_OF_PERICENTER":52.1358,"MEAN_ANOMALY":308.0561,"EPHEMERIS_TYPE":0,"CLASSIFICATION_TYPE":"U","NORAD_CAT_ID":63743,"ELEMENT_SET_NO":999,"REV_AT_EPOCH":4671,"BSTAR":0.0009853,"MEAN_MOTION_DOT":7.308e-5,"MEAN_MOTION_DDOT":0},{"OBJECT_NAME":"KUIPER-00031","OBJECT_ID":"2025-088W","EPOCH":"2026-03-03T08:56:34.640160","MEAN_MOTION":14.83587534,"ECCENTRICITY":0.0002267,"INCLINATION":51.8995,"RA_OF_ASC_NODE":123.7875,"ARG_OF_PERICENTER":125.3116,"MEAN_ANOMALY":234.806,"EPHEMERIS_TYPE":0,"CLASSIFICATION_TYPE":"U","NORAD_CAT_ID":63744,"ELEMENT_SET_NO":999,"REV_AT_EPOCH":4661,"BSTAR":0.00082937,"MEAN_MOTION_DOT":6.68e-5,"MEAN_MOTION_DDOT":0},{"OBJECT_NAME":"KUIPER-00032","OBJECT_ID":"2025-088X","EPOCH":"2026-03-03T08:41:33.482976","MEAN_MOTION":15.3706349,"ECCENTRICITY":0.0005289,"INCLINATION":51.8703,"RA_OF_ASC_NODE":54.8135,"ARG_OF_PERICENTER":90.3589,"MEAN_ANOMALY":269.8003,"EPHEMERIS_TYPE":0,"CLASSIFICATION_TYPE":"U","NORAD_CAT_ID":63745,"ELEMENT_SET_NO":999,"REV_AT_EPOCH":4857,"BSTAR":0.00051372,"MEAN_MOTION_DOT":0.00018585,"MEAN_MOTION_DDOT":0},{"OBJECT_NAME":"KUIPER-00033","OBJECT_ID":"2025-088Y","EPOCH":"2026-03-03T11:47:06.567072","MEAN_MOTION":14.83380189,"ECCENTRICITY":7.88e-5,"INCLINATION":51.9011,"RA_OF_ASC_NODE":153.4187,"ARG_OF_PERICENTER":44.88,"MEAN_ANOMALY":315.2228,"EPHEMERIS_TYPE":0,"CLASSIFICATION_TYPE":"U","NORAD_CAT_ID":63746,"ELEMENT_SET_NO":999,"REV_AT_EPOCH":4669,"BSTAR":0.00086536,"MEAN_MOTION_DOT":6.945e-5,"MEAN_MOTION_DDOT":0},{"OBJECT_NAME":"KUIPER-00034","OBJECT_ID":"2025-088Z","EPOCH":"2026-03-03T10:42:54.116352","MEAN_MOTION":14.83539495,"ECCENTRICITY":0.0001751,"INCLINATION":51.9011,"RA_OF_ASC_NODE":115.9571,"ARG_OF_PERICENTER":335.6172,"MEAN_ANOMALY":24.4709,"EPHEMERIS_TYPE":0,"CLASSIFICATION_TYPE":"U","NORAD_CAT_ID":63747,"ELEMENT_SET_NO":999,"REV_AT_EPOCH":4689,"BSTAR":0.00077089,"MEAN_MOTION_DOT":6.185e-5,"MEAN_MOTION_DDOT":0},{"OBJECT_NAME":"KUIPER-00035","OBJECT_ID":"2025-088AA","EPOCH":"2026-03-03T12:00:00.998784","MEAN_MOTION":14.83217464,"ECCENTRICITY":0.0004004,"INCLINATION":51.8992,"RA_OF_ASC_NODE":141.384,"ARG_OF_PERICENTER":56.9293,"MEAN_ANOMALY":27.1367,"EPHEMERIS_TYPE":0,"CLASSIFICATION_TYPE":"U","NORAD_CAT_ID":63748,"ELEMENT_SET_NO":999,"REV_AT_EPOCH":286,"BSTAR":-0.0014016,"MEAN_MOTION_DOT":-0.00011771,"MEAN_MOTION_DDOT":0},{"OBJECT_NAME":"KUIPER-00037","OBJECT_ID":"2025-088AB","EPOCH":"2026-03-03T10:17:25.132704","MEAN_MOTION":14.79874526,"ECCENTRICITY":7.14e-5,"INCLINATION":51.9001,"RA_OF_ASC_NODE":140.7464,"ARG_OF_PERICENTER":34.8544,"MEAN_ANOMALY":325.2465,"EPHEMERIS_TYPE":0,"CLASSIFICATION_TYPE":"U","NORAD_CAT_ID":63749,"ELEMENT_SET_NO":999,"REV_AT_EPOCH":4738,"BSTAR":0.00091146,"MEAN_MOTION_DOT":6.725e-5,"MEAN_MOTION_DDOT":0},{"OBJECT_NAME":"KUIPER-00038","OBJECT_ID":"2025-088AC","EPOCH":"2026-03-03T09:03:32.004864","MEAN_MOTION":14.79909141,"ECCENTRICITY":1.83e-5,"INCLINATION":51.9017,"RA_OF_ASC_NODE":126.0027,"ARG_OF_PERICENTER":133.4089,"MEAN_ANOMALY":226.6889,"EPHEMERIS_TYPE":0,"CLASSIFICATION_TYPE":"U","NORAD_CAT_ID":63750,"ELEMENT_SET_NO":999,"REV_AT_EPOCH":4658,"BSTAR":0.00082759,"MEAN_MOTION_DOT":6.09e-5,"MEAN_MOTION_DDOT":0},{"OBJECT_NAME":"KUIPER-00039","OBJECT_ID":"2025-134A","EPOCH":"2026-03-03T11:38:39.621120","MEAN_MOTION":14.79921532,"ECCENTRICITY":0.0001033,"INCLINATION":51.8999,"RA_OF_ASC_NODE":260.529,"ARG_OF_PERICENTER":61.9751,"MEAN_ANOMALY":298.1316,"EPHEMERIS_TYPE":0,"CLASSIFICATION_TYPE":"U","NORAD_CAT_ID":64500,"ELEMENT_SET_NO":999,"REV_AT_EPOCH":3915,"BSTAR":0.00059374,"MEAN_MOTION_DOT":4.307e-5,"MEAN_MOTION_DDOT":0},{"OBJECT_NAME":"KUIPER-00040","OBJECT_ID":"2025-134B","EPOCH":"2026-03-02T23:59:54.195648","MEAN_MOTION":14.79932074,"ECCENTRICITY":0.0013687,"INCLINATION":51.8989,"RA_OF_ASC_NODE":273.8116,"ARG_OF_PERICENTER":242.5964,"MEAN_ANOMALY":117.3606,"EPHEMERIS_TYPE":0,"CLASSIFICATION_TYPE":"U","NORAD_CAT_ID":64501,"ELEMENT_SET_NO":999,"REV_AT_EPOCH":3892,"BSTAR":0.00072254,"MEAN_MOTION_DOT":5.296e-5,"MEAN_MOTION_DDOT":0},{"OBJECT_NAME":"KUIPER-00041","OBJECT_ID":"2025-134C","EPOCH":"2026-03-02T19:12:43.524000","MEAN_MOTION":14.78691298,"ECCENTRICITY":0.00070895,"INCLINATION":51.8985,"RA_OF_ASC_NODE":276.0926,"ARG_OF_PERICENTER":241.9402,"MEAN_ANOMALY":118.0844,"EPHEMERIS_TYPE":0,"CLASSIFICATION_TYPE":"U","NORAD_CAT_ID":64502,"ELEMENT_SET_NO":999,"REV_AT_EPOCH":3887,"BSTAR":0.00055429749,"MEAN_MOTION_DOT":3.886e-5,"MEAN_MOTION_DDOT":0},{"OBJECT_NAME":"KUIPER-00042","OBJECT_ID":"2025-134D","EPOCH":"2026-03-03T00:03:41.335200","MEAN_MOTION":14.79872098,"ECCENTRICITY":0.0007388,"INCLINATION":51.8989,"RA_OF_ASC_NODE":271.1637,"ARG_OF_PERICENTER":257.3465,"MEAN_ANOMALY":102.6672,"EPHEMERIS_TYPE":0,"CLASSIFICATION_TYPE":"U","NORAD_CAT_ID":64503,"ELEMENT_SET_NO":999,"REV_AT_EPOCH":3896,"BSTAR":-0.00063289,"MEAN_MOTION_DOT":-5.039e-5,"MEAN_MOTION_DDOT":0},{"OBJECT_NAME":"KUIPER-00043","OBJECT_ID":"2025-134E","EPOCH":"2026-03-02T22:16:10.019136","MEAN_MOTION":14.83778187,"ECCENTRICITY":8.92e-5,"INCLINATION":51.9,"RA_OF_ASC_NODE":263.1025,"ARG_OF_PERICENTER":311.7049,"MEAN_ANOMALY":48.3838,"EPHEMERIS_TYPE":0,"CLASSIFICATION_TYPE":"U","NORAD_CAT_ID":64504,"ELEMENT_SET_NO":999,"REV_AT_EPOCH":3907,"BSTAR":0.00058344,"MEAN_MOTION_DOT":4.652e-5,"MEAN_MOTION_DDOT":0},{"OBJECT_NAME":"KUIPER-00044","OBJECT_ID":"2025-134F","EPOCH":"2026-03-02T23:55:55.900992","MEAN_MOTION":14.79979669,"ECCENTRICITY":0.0007889,"INCLINATION":51.8983,"RA_OF_ASC_NODE":276.1858,"ARG_OF_PERICENTER":252.6055,"MEAN_ANOMALY":107.4045,"EPHEMERIS_TYPE":0,"CLASSIFICATION_TYPE":"U","NORAD_CAT_ID":64505,"ELEMENT_SET_NO":999,"REV_AT_EPOCH":3889,"BSTAR":0.0029357,"MEAN_MOTION_DOT":0.00022267,"MEAN_MOTION_DDOT":0},{"OBJECT_NAME":"KUIPER-00046","OBJECT_ID":"2025-134G","EPOCH":"2026-03-03T00:02:10.601376","MEAN_MOTION":14.79933784,"ECCENTRICITY":7.41e-5,"INCLINATION":51.8971,"RA_OF_ASC_NODE":272.6277,"ARG_OF_PERICENTER":107.2004,"MEAN_ANOMALY":252.9039,"EPHEMERIS_TYPE":0,"CLASSIFICATION_TYPE":"U","NORAD_CAT_ID":64506,"ELEMENT_SET_NO":999,"REV_AT_EPOCH":3894,"BSTAR":0.00057168,"MEAN_MOTION_DOT":4.14e-5,"MEAN_MOTION_DDOT":0}]
